NORAD_CAT_ID,OBJECT_NAME,OBJECT_TYPE,EPOCH,MEAN_MOTION,ECCENTRICITY,INCLINATION,RA_OF_ASC_NODE,ARG_OF_PERICENTER,MEAN_ANOMALY,BSTAR,MEAN_MOTION_DOT,MEAN_MOTION_DDOT,TLE_LINE0,TLE_LINE1,TLE_LINE2,SEMIMAJOR_AXIS,PERIOD,APOGEE,PERIGEE,DECAYED
53608.0,STARLINK-4647,PAYLOAD,2022-12-14 16:54:15,15.08842986,0.0002072,53.2178,135.9497,48.8454,311.2717,6.174e-05,6.95e-06,0.0,0 STARLINK-4647,1 53608U 22104W   22348.70435169  .00000695  00000-0  61740-4 0  9997,2 53608  53.2178 135.9497 0002072  48.8454 311.2717 15.08842986 16776,6917.871,95.437,541.17,538.303,0.0
53608.0,STARLINK-4647,PAYLOAD,2022-12-15 02:26:35,15.08835486,0.0002272,53.2188,134.1645,50.2246,309.8946,-1.069e-05,-4.58e-06,0.0,0 STARLINK-4647,1 53608U 22104W   22349.10180008 -.00000458  00000-0 -10690-4 0  9998,2 53608  53.2188 134.1645 0002272  50.2246 309.8946 15.08835486 16832,6917.894,95.438,541.331,538.187,0.0
53608.0,STARLINK-4647,PAYLOAD,2022-12-15 13:34:17,15.08835315,0.0002014,53.216,132.0826,50.3901,309.7269,7.6937e-05,9.36e-06,0.0,0 STARLINK-4647,1 53608U 22104W   22349.56547638  .00000936  00000-0  76937-4 0  9999,2 53608  53.2160 132.0826 0002014  50.3901 309.7269 15.08835315 17472,6917.895,95.438,541.153,538.366,0.0
53608.0,STARLINK-4647,PAYLOAD,2022-12-15 19:55:49,15.08841366,0.0002037,53.218,130.8945,46.6826,313.4335,0.00011578,1.555e-05,0.0,0 STARLINK-4647,1 53608U 22104W   22349.83043158  .00001555  00000-0  11578-3 0  9994,2 53608  53.2180 130.8945 0002037  46.6826 313.4335 15.08841366 17515,6917.876,95.437,541.15,538.332,0.0
53608.0,STARLINK-4647,PAYLOAD,2022-12-15 21:31:12,15.08843415,0.000204,53.2178,130.5972,47.3322,312.7842,0.00013177,1.810000000000001e-05,0.0,0 STARLINK-4647,1 53608U 22104W   22349.89666962  .00001810  00000-0  13177-3 0  9995,2 53608  53.2178 130.5972 0002040  47.3322 312.7842 15.08843415 16951,6917.87,95.437,541.146,538.3240000000002,0.0
53608.0,STARLINK-4647,PAYLOAD,2022-12-16 13:25:04,15.08842118,0.0002083,53.2183,127.6238,46.0781,314.0383,-3.1921e-05,-7.96e-06,0.0,0 STARLINK-4647,1 53608U 22104W   22350.55907497 -.00000796  00000-0 -31921-4 0  9993,2 53608  53.2183 127.6238 0002083  46.0781 314.0383 15.08842118 17057,6917.874,95.437,541.18,538.298,0.0
53608.0,STARLINK-4647,PAYLOAD,2022-12-16 18:11:13,15.08835873,0.0002034,53.2185,126.7317,44.4361,315.6794,-4.2587e-05,-9.66e-06,0.0,0 STARLINK-4647,1 53608U 22104W   22350.75779891 -.00000966  00000-0 -42587-4 0  9999,2 53608  53.2185 126.7317 0002034  44.4361 315.6794 15.08835873 17658,6917.893,95.438,541.165,538.351,0.0
53608.0,STARLINK-4647,PAYLOAD,2022-12-17 10:05:05,15.088326,0.0002221,53.2191,123.7581,50.3754,309.7434,-6.7935e-05,-1.369e-05,0.0,0 STARLINK-4647,1 53608U 22104W   22351.42020419 -.00001369  00000-0 -67935-4 0  9991,2 53608  53.2191 123.7581 0002221  50.3754 309.7434 15.08832600 17756,6917.903,95.438,541.304,538.232,0.0
53608.0,STARLINK-4647,PAYLOAD,2022-12-17 16:26:38,15.08835656,0.0002045,53.2192,122.5689,46.1098,314.0063,-7.8694e-05,-1.5399999999999998e-05,0.0,0 STARLINK-4647,1 53608U 22104W   22351.68516295 -.00001540  00000-0 -78694-4 0  9996,2 53608  53.2192 122.5689 0002045  46.1098 314.0063 15.08835656 17796,6917.894,95.438,541.173,538.344,0.0
53608.0,STARLINK-4647,PAYLOAD,2022-12-18 08:20:28,15.08842052,0.0002078,53.2197,119.5957,44.517,315.5988,-3.4998e-05,-8.45e-06,0.0,0 STARLINK-4647,1 53608U 22104W   22352.34755742 -.00000845  00000-0 -34998-4 0  9998,2 53608  53.2197 119.5957 0002078  44.5170 315.5988 15.08842052 17323,6917.874,95.437,541.177,538.302,0.0
53608.0,STARLINK-4647,PAYLOAD,2022-12-18 16:17:24,15.08833003,0.0002043,53.2193,118.1084,44.3551,315.7605,2.8913000000000013e-05,1.72e-06,0.0,0 STARLINK-4647,1 53608U 22104W   22352.67876147  .00000172  00000-0  28913-4 0  9998,2 53608  53.2193 118.1084 0002043  44.3551 315.7605 15.08833003 17377,6917.901999999999,95.438,541.18,538.3530000000002,0.0
53608.0,STARLINK-4647,PAYLOAD,2022-12-19 01:49:43,15.08840594,0.0002044,53.2194,116.3243,43.6003,316.515,6.9471e-05,8.18e-06,0.0,0 STARLINK-4647,1 53608U 22104W   22353.07619605  .00000818  00000-0  69471-4 0  9998,2 53608  53.2194 116.3243 0002044  43.6003 316.5150 15.08840594 17434,6917.879,95.438,541.158,538.33,0.0
53608.0,STARLINK-4647,PAYLOAD,2022-12-19 08:11:15,15.08837664,0.0002064,53.2192,115.1352,41.8207,318.2942,0.00011121,1.482e-05,0.0,0 STARLINK-4647,1 53608U 22104W   22353.34115652  .00001482  00000-0  11121-3 0  9997,2 53608  53.2192 115.1352 0002064  41.8207 318.2942 15.08837664 18048,6917.888000000001,95.438,541.18,538.325,0.0
53608.0,STARLINK-4647,PAYLOAD,2022-12-19 14:32:48,15.0883827,0.0002022,53.2193,113.9455,44.24800000000001,315.8674,0.00010381,1.364e-05,0.0,0 STARLINK-4647,1 53608U 22104W   22353.60611793  .00001364  00000-0  10381-3 0  9999,2 53608  53.2193 113.9455 0002022  44.2480 315.8674 15.08838270 18086,6917.886,95.438,541.149,538.352,0.0
53608.0,STARLINK-4647,PAYLOAD,2022-12-20 01:40:29,15.08853068,0.000201,53.2188,111.8638,42.8014,317.3134,0.00013627,1.882e-05,0.0,0 STARLINK-4647,1 53608U 22104W   22354.06978437  .00001882  00000-0  13627-3 0  9992,2 53608  53.2188 111.8638 0002010  42.8014 317.3134 15.08853068 17588,6917.84,95.437,541.096,538.315,0.0
53608.0,STARLINK-4647,PAYLOAD,2022-12-20 14:23:34,15.08843566,0.0002071,53.2196,109.4865,39.9184,320.196,8.9672e-05,1.139e-05,0.0,0 STARLINK-4647,1 53608U 22104W   22354.59970892  .00001139  00000-0  89672-4 0  9996,2 53608  53.2196 109.4865 0002071  39.9184 320.1960 15.08843566 17664,6917.869000000002,95.437,541.1669999999998,538.302,0.0
53608.0,STARLINK-4647,PAYLOAD,2022-12-21 11:03:37,15.0882367,0.000208,53.22,105.6204,43.697,316.4187,-0.00013133,-2.377e-05,0.0,0 STARLINK-4647,1 53608U 22104W   22355.46085039 -.00002377  00000-0 -13133-3 0  9998,2 53608  53.2200 105.6204 0002080  43.6970 316.4187 15.08823670 17797,6917.93,95.439,541.234,538.356,0.0
53608.0,STARLINK-4647,PAYLOAD,2022-12-21 17:25:09,15.08828971,0.0001935,53.2195,104.4286,44.023,316.0916,-0.00012398,-2.26e-05,0.0,0 STARLINK-4647,1 53608U 22104W   22355.72580843 -.00002260  00000-0 -12398-3 0  9993,2 53608  53.2195 104.4286 0001935  44.0230 316.0916 15.08828971 17839,6917.9140000000025,95.438,541.118,538.44,0.0
53608.0,STARLINK-4647,PAYLOAD,2022-12-22 18:51:19,15.08834434,0.0002082,53.2186,99.6731,34.3081,325.8046,-3.3434e-05,-8.2e-06,0.0,0 STARLINK-4647,1 53608U 22104W   22356.78564454 -.00000820  00000-0 -33434-4 0  9995,2 53608  53.2186  99.6731 0002082  34.3081 325.8046 15.08834434 17999,6917.897,95.438,541.203,538.322,0.0
53608.0,STARLINK-4647,PAYLOAD,2022-12-23 13:55:57,15.08831183,0.0002143,53.2189,96.1047,31.584,328.528,5.9492e-05,6.58e-06,0.0,0 STARLINK-4647,1 53608U 22104W   22357.58052980  .00000658  00000-0  59492-4 0  9999,2 53608  53.2189  96.1047 0002143  31.5840 328.5280 15.08831183 18689,6917.906999999997,95.438,541.255,538.29,0.0
53608.0,STARLINK-4647,PAYLOAD,2022-12-23 17:06:44,15.08824737,0.0002263,53.2186,95.5103,30.8171,329.2954,4.123100000000001e-05,3.68e-06,0.0,0 STARLINK-4647,1 53608U 22104W   22357.71301542  .00000368  00000-0  41231-4 0  9995,2 53608  53.2186  95.5103 0002263  30.8171 329.2954 15.08824737 18137,6917.927,95.439,541.3580000000002,538.227,0.0
53608.0,STARLINK-4647,PAYLOAD,2022-12-23 23:28:16,15.08832756,0.0002143,53.2189,94.3218,33.1192,326.9934,4.3089e-05,3.97e-06,0.0,0 STARLINK-4647,1 53608U 22104W   22357.97797171  .00000397  00000-0  43089-4 0  9995,2 53608  53.2189  94.3218 0002143  33.1192 326.9934 15.08832756 18176,6917.903,95.438,541.25,538.285,0.0
53608.0,STARLINK-4647,PAYLOAD,2022-12-24 07:25:11,15.08840344,0.0002165,53.2184,92.8336,31.0158,329.0962,8.058699999999999e-05,9.95e-06,0.0,0 STARLINK-4647,1 53608U 22104W   22358.30916640  .00000995  00000-0  80587-4 0  9995,2 53608  53.2184  92.8336 0002165  31.0158 329.0962 15.08840344 18221,6917.879,95.438,541.242,538.247,0.0
53608.0,STARLINK-4647,PAYLOAD,2022-12-24 18:32:54,15.08836933,0.0002203,53.2184,90.7522,31.3158,328.7965,4.415e-05,4.14e-06,0.0,0 STARLINK-4647,1 53608U 22104W   22358.77285030  .00000414  00000-0  44150-4 0  9990,2 53608  53.2184  90.7522 0002203  31.3158 328.7965 15.08836933 18869,6917.89,95.438,541.279,538.231,0.0
53608.0,STARLINK-4647,PAYLOAD,2022-12-24 23:19:03,15.0884326,0.000206,53.2198,89.8598,25.468000000000004,334.6413,9.8011e-05,1.272e-05,0.0,0 STARLINK-4647,1 53608U 22104W   22358.97156343  .00001272  00000-0  98011-4 0  9994,2 53608  53.2198  89.8598 0002060  25.4680 334.6413 15.08843260 18899,6917.87,95.437,541.161,538.31,0.0
53608.0,STARLINK-4647,PAYLOAD,2022-12-25 15:12:55,15.08832425,0.0002017,53.2215,86.8902,37.8092,322.3042,-5.160600000000002e-05,-1.109e-05,0.0,0 STARLINK-4647,1 53608U 22104W   22359.63397872 -.00001109  00000-0 -51606-4 0  9992,2 53608  53.2215  86.8902 0002017  37.8092 322.3042 15.08832425 18423,6917.904,95.438,541.164,538.373,0.0
53608.0,STARLINK-4647,PAYLOAD,2022-12-26 11:52:55,15.0884266,0.0002172,53.2187,83.0215,29.3545,330.7568,1.4526e-05,-5.7e-07,0.0,0 STARLINK-4647,1 53608U 22104W   22360.49509208 -.00000057  00000-0  14526-4 0  9996,2 53608  53.2187  83.0215 0002172  29.3545 330.7568 15.08842660 18550,6917.871999999999,95.437,541.24,538.235,0.0
53608.0,STARLINK-4647,PAYLOAD,2022-12-27 05:22:10,15.08847504,0.000225,53.2199,79.7498,32.7925,327.3207,1.4692e-05,-5.4e-07,0.0,0 STARLINK-4647,1 53608U 22104W   22361.22372779 -.00000054  00000-0  14692-4 0  9990,2 53608  53.2199  79.7498 0002250  32.7925 327.3207 15.08847504 19235,6917.857,95.437,541.279,538.1659999999998,0.0
53608.0,STARLINK-4647,PAYLOAD,2022-12-27 10:08:19,15.08848602,0.0002448,53.2191,78.8612,31.4431,328.6707,0.00015489,2.178e-05,0.0,0 STARLINK-4647,1 53608U 22104W   22361.42244229  .00002178  00000-0  15489-3 0  9992,2 53608  53.2191  78.8612 0002448  31.4431 328.6707 15.08848602 18690,6917.854,95.437,541.413,538.026,0.0
